SL-16 R/B               
1 25407U 98045B   26068.71444668  .00000177  00000+0  11334-3 0  9995
2 25407  71.0118 181.5219 0006733   8.0336 352.0894 14.16190002427103
ISS (ZARYA)             
1 25544U 98067A   26069.15865510  .00009130  00000+0  17626-3 0  9991
2 25544  51.6324  70.0375 0007972 176.2903 183.8146 15.48557200556406
CZ-4B R/B               
1 25732U 99025C   26069.08238256  .00000056  00000+0  47800-4 0  9994
2 25732  98.6626 113.3547 0036716 345.4857  43.2279 14.18265352388228
OKEAN-O                 
1 25860U 99039A   26069.12512873  .00000794  00000+0  11094-3 0  9990
2 25860  97.9441 129.0122 0001255  70.1592 289.9755 14.80335846434458
SL-16 R/B               
1 25861U 99039B   26069.17211037  .00000705  00000+0  96212-4 0  9992
2 25861  97.9966 128.2681 0013523 254.3521 105.6199 14.81732333436935
DELTA 2 R/B             
1 25876U 99041E   26069.00810879  .00001293  00000+0  24629-3 0  9997
2 25876  51.7624 300.0088 0502409 349.3726   9.6894 14.11838777363070
HELIOS 1B               
1 25977U 99064A   26069.18466381  .00002272  00000+0  25574-3 0  9996
2 25977  98.1690 331.4426 0002453  74.5730 285.5756 14.87701600685335
TERRA                   
1 25994U 99068A   26069.19188568  .00000562  00000+0  12367-3 0  9994
2 25994  97.9593 122.6074 0002734 150.2243 256.3923 14.61015427395152
SL-16 R/B               
1 26070U 00006B   26069.22442486 -.00000117  00000+0 -35201-4 0  9991
2 26070  71.0009  96.7132 0016747 189.4618 170.6192 14.15825739348639
TITAN 4B R/B            
1 26474U 00047B   26069.16035813  .00005842  00000+0  36475-3 0  9990
2 26474  67.9902  39.1867 0038636  34.8510 325.5157 15.09569096392988
ENVISAT                 
1 27386U 02009A   26068.89108324  .00000182  00000+0  72747-4 0  9995
2 27386  98.3728  22.4836 0001301  82.8070 343.1988 14.39037082259201
IDEFIX & ARIANE 42P R/B 
1 27422U 02021B   26068.77554362  .00000383  00000+0  16192-3 0  9998
2 27422  98.5868   7.3808 0011576 182.0346 178.0792 14.31026352244037
